{"type": "FeatureCollection", "features": [ {"type": "Feature", "properties": {"norad_id": 34736, "name": "COSMOS 2251 DEB", "group": "cosmos-2251-debris", "lat": 27.901287707635532, "lon": 49.601688577984504, "alt_km": 419.9604773023975, "timestamp": "2025-12-10T14:53:37.482922+00:00", "meta": {"OBJECT_NAME": "COSMOS 2251 DEB", "OBJECT_ID": "1993-036ZE", "EPOCH": "2025-12-10T05:26:42.439776", "MEAN_MOTION": 15.44989553, "ECCENTRICITY": 0.00172881, "INCLINATION": 74.002, "RA_OF_ASC_NODE": 41.7223, "ARG_OF_PERICENTER": 349.0288, "MEAN_ANOMALY": 11.0542, "EPHEMERIS_TYPE": 0, "CLASSIFICATION_TYPE": "U", "NORAD_CAT_ID": 34736, "ELEMENT_SET_NO": 999, "REV_AT_EPOCH": 88409, "BSTAR": 0.010676727, "MEAN_MOTION_DOT": 0.00542218, "MEAN_MOTION_DDOT": 0}, "tle": {"line1": "1 34736U 93036ZE  25344.22688009  .00542218  00000+0  10677-1 0  9990", "line2": "2 34736  74.0020  41.7223 0017288 349.0288  11.0542 15.44989553884092"}}, "geometry": {"type": "Point", "coordinates": [49.601688577984504, 27.901287707635532]}}, {"type": "Feature", "properties": {"norad_id": 34738, "name": "COSMOS 2251 DEB", "group": "cosmos-2251-debris", "lat": -20.166408510835105, "lon": 141.18389289654672, "alt_km": 718.8319093178234, "timestamp": "2025-12-10T14:53:37.482931+00:00", "meta": {"OBJECT_NAME": "COSMOS 2251 DEB", "OBJECT_ID": "1993-036ZG", "EPOCH": "2025-12-09T12:41:33.004608", "MEAN_MOTION": 14.46291371, "ECCENTRICITY": 0.00473111, "INCLINATION": 74.0141, "RA_OF_ASC_NODE": 149.2671, "ARG_OF_PERICENTER": 296.1263, "MEAN_ANOMALY": 120.6858, "EPHEMERIS_TYPE": 0, "CLASSIFICATION_TYPE": "U", "NORAD_CAT_ID": 34738, "ELEMENT_SET_NO": 999, "REV_AT_EPOCH": 87812, "BSTAR": 0.00056224622, "MEAN_MOTION_DOT": 2.015e-05, "MEAN_MOTION_DDOT": 0}, "tle": {"line1": "1 34738U 93036ZG  25343.52885422  .00002015  00000+0  56225-3 0  9999", "line2": "2 34738  74.0141 149.2671 0047311 296.1263 120.6858 14.46291371878123"}}, "geometry": {"type": "Point", "coordinates": [141.18389289654672, -20.166408510835105]}}, {"type": "Feature", "properties": {"norad_id": 34750, "name": "COSMOS 2251 DEB", "group": "cosmos-2251-debris", "lat": 20.831650475498, "lon": -147.99095180872345, "alt_km": 709.0144080906084, "timestamp": "2025-12-10T14:53:37.482939+00:00", "meta": {"OBJECT_NAME": "COSMOS 2251 DEB", "OBJECT_ID": "1993-036ZU", "EPOCH": "2025-12-09T19:38:52.084032", "MEAN_MOTION": 14.61275497, "ECCENTRICITY": 0.00389919, "INCLINATION": 74.1082, "RA_OF_ASC_NODE": 207.3119, "ARG_OF_PERICENTER": 161.4678, "MEAN_ANOMALY": 323.8218, "EPHEMERIS_TYPE": 0, "CLASSIFICATION_TYPE": "U", "NORAD_CAT_ID": 34750, "ELEMENT_SET_NO": 999, "REV_AT_EPOCH": 88188, "BSTAR": 0.001570725, "MEAN_MOTION_DOT": 7.814e-05, "MEAN_MOTION_DDOT": 0}, "tle": {"line1": "1 34750U 93036ZU  25343.81865838  .00007814  00000+0  15707-2 0  9995", "line2": "2 34750  74.1082 207.3119 0038991 161.4678 323.8218 14.61275497881885"}}, "geometry": {"type": "Point", "coordinates": [-147.99095180872345, 20.831650475498]}}, {"type": "Feature", "properties": {"norad_id": 34752, "name": "COSMOS 2251 DEB", "group": "cosmos-2251-debris", "lat": -47.02492009589375, "lon": -157.16113993325004, "alt_km": 576.8066912650866, "timestamp": "2025-12-10T14:53:37.482949+00:00", "meta": {"OBJECT_NAME": "COSMOS 2251 DEB", "OBJECT_ID": "1993-036ZW", "EPOCH": "2025-12-10T01:04:15.987936", "MEAN_MOTION": 14.99826856, "ECCENTRICITY": 0.00478347, "INCLINATION": 74.0135, "RA_OF_ASC_NODE": 6.0894, "ARG_OF_PERICENTER": 135.411, "MEAN_ANOMALY": 225.0941, "EPHEMERIS_TYPE": 0, "CLASSIFICATION_TYPE": "U", "NORAD_CAT_ID": 34752, "ELEMENT_SET_NO": 999, "REV_AT_EPOCH": 89809, "BSTAR": 0.0012054282, "MEAN_MOTION_DOT": 0.00015282, "MEAN_MOTION_DDOT": 0}, "tle": {"line1": "1 34752U 93036ZW  25344.04462949  .00015282  00000+0  12054-2 0  9999", "line2": "2 34752  74.0135   6.0894 0047834 135.4110 225.0941 14.99826856898096"}}, "geometry": {"type": "Point", "coordinates": [-157.16113993325004, -47.02492009589375]}}, {"type": "Feature", "properties": {"norad_id": 34754, "name": "COSMOS 2251 DEB", "group": "cosmos-2251-debris", "lat": -60.399631772132956, "lon": -158.74668640073244, "alt_km": 750.9417017109763, "timestamp": "2025-12-10T14:53:37.482973+00:00", "meta": {"OBJECT_NAME": "COSMOS 2251 DEB", "OBJECT_ID": "1993-036ZY", "EPOCH": "2025-12-09T19:42:51.443136", "MEAN_MOTION": 14.40475673, "ECCENTRICITY": 0.00294382, "INCLINATION": 74.0306, "RA_OF_ASC_NODE": 233.0003, "ARG_OF_PERICENTER": 349.6648, "MEAN_ANOMALY": 123.4485, "EPHEMERIS_TYPE": 0, "CLASSIFICATION_TYPE": "U", "NORAD_CAT_ID": 34754, "ELEMENT_SET_NO": 999, "REV_AT_EPOCH": 88091, "BSTAR": 0.00036952182, "MEAN_MOTION_DOT": 1.155e-05, "MEAN_MOTION_DDOT": 0}, "tle": {"line1": "1 34754U 93036ZY  25343.82142874  .00001155  00000+0  36952-3 0  9996", "line2": "2 34754  74.0306 233.0003 0029438 349.6648 123.4485 14.40475673880916"}}, "geometry": {"type": "Point", "coordinates": [-158.74668640073244, -60.399631772132956]}}, {"type": "Feature", "properties": {"norad_id": 34755, "name": "COSMOS 2251 DEB", "group": "cosmos-2251-debris", "lat": 12.647458265374205, "lon": -62.85882952330877, "alt_km": 908.2602749642501, "timestamp": "2025-12-10T14:53:37.482983+00:00", "meta": {"OBJECT_NAME": "COSMOS 2251 DEB", "OBJECT_ID": "1993-036ZZ", "EPOCH": "2025-12-09T14:51:16.004736", "MEAN_MOTION": 13.50545635, "ECCENTRICITY": 0.0408332, "INCLINATION": 73.9259, "RA_OF_ASC_NODE": 295.0408, "ARG_OF_PERICENTER": 315.4104, "MEAN_ANOMALY": 225.7513, "EPHEMERIS_TYPE": 0, "CLASSIFICATION_TYPE": "U", "NORAD_CAT_ID": 34755, "ELEMENT_SET_NO": 999, "REV_AT_EPOCH": 82481, "BSTAR": 0.0027358, "MEAN_MOTION_DOT": 2.929e-05, "MEAN_MOTION_DDOT": 0}, "tle": {"line1": "1 34755U 93036ZZ  25343.61893524  .00002929  00000+0  27358-2 0  9998", "line2": "2 34755  73.9259 295.0408 0408332 315.4104 225.7513 13.50545635824812"}}, "geometry": {"type": "Point", "coordinates": [-62.85882952330877, 12.647458265374205]}}, {"type": "Feature", "properties": {"norad_id": 34756, "name": "COSMOS 2251 DEB", "group": "cosmos-2251-debris", "lat": 29.379500329195366, "lon": -81.43940231135049, "alt_km": 1253.2116201767267, "timestamp": "2025-12-10T14:53:37.482992+00:00", "meta": {"OBJECT_NAME": "COSMOS 2251 DEB", "OBJECT_ID": "1993-036AAA", "EPOCH": "2025-12-08T18:16:00.051744", "MEAN_MOTION": 13.67230677, "ECCENTRICITY": 0.03448148, "INCLINATION": 74.0023, "RA_OF_ASC_NODE": 110.912, "ARG_OF_PERICENTER": 347.5917, "MEAN_ANOMALY": 11.686, "EPHEMERIS_TYPE": 0, "CLASSIFICATION_TYPE": "U", "NORAD_CAT_ID": 34756, "ELEMENT_SET_NO": 999, "REV_AT_EPOCH": 83367, "BSTAR": 0.0014333065, "MEAN_MOTION_DOT": 1.792e-05, "MEAN_MOTION_DDOT": 0}, "tle": {"line1": "1 34756U 93036AAA 25342.76111171  .00001792  00000+0  14333-2 0  9991", "line2": "2 34756  74.0023 110.9120 0344814 347.5917  11.6860 13.67230677833678"}}, "geometry": {"type": "Point", "coordinates": [-81.43940231135049, 29.379500329195366]}}, {"type": "Feature", "properties": {"norad_id": 34758, "name": "COSMOS 2251 DEB", "group": "cosmos-2251-debris", "lat": -32.286381437243676, "lon": -67.46238379644782, "alt_km": 1090.8828446575062, "timestamp": "2025-12-10T14:53:37.483002+00:00", "meta": {"OBJECT_NAME": "COSMOS 2251 DEB", "OBJECT_ID": "1993-036AAC", "EPOCH": "2025-12-09T21:22:44.685408", "MEAN_MOTION": 13.58054621, "ECCENTRICITY": 0.03810265, "INCLINATION": 74.1074, "RA_OF_ASC_NODE": 304.0817, "ARG_OF_PERICENTER": 68.4859, "MEAN_ANOMALY": 295.6418, "EPHEMERIS_TYPE": 0, "CLASSIFICATION_TYPE": "U", "NORAD_CAT_ID": 34758, "ELEMENT_SET_NO": 999, "REV_AT_EPOCH": 82871, "BSTAR": 0.0016498758, "MEAN_MOTION_DOT": 1.899e-05, "MEAN_MOTION_DDOT": 0}, "tle": {"line1": "1 34758U 93036AAC 25343.89079497  .00001899  00000+0  16499-2 0  9995", "line2": "2 34758  74.1074 304.0817 0381026  68.4859 295.6418 13.58054621828711"}}, "geometry": {"type": "Point", "coordinates": [-67.46238379644782, -32.286381437243676]}}, {"type": "Feature", "properties": {"norad_id": 34760, "name": "COSMOS 2251 DEB", "group": "cosmos-2251-debris", "lat": 62.12144576809862, "lon": 93.44718328623227, "alt_km": 848.6615366136602, "timestamp": "2025-12-10T14:53:37.483011+00:00", "meta": {"OBJECT_NAME": "COSMOS 2251 DEB", "OBJECT_ID": "1993-036AAE", "EPOCH": "2025-12-10T04:17:30.556896", "MEAN_MOTION": 14.19557833, "ECCENTRICITY": 0.00966658, "INCLINATION": 74.0629, "RA_OF_ASC_NODE": 306.9295, "ARG_OF_PERICENTER": 359.6209, "MEAN_ANOMALY": 15.8877, "EPHEMERIS_TYPE": 0, "CLASSIFICATION_TYPE": "U", "NORAD_CAT_ID": 34760, "ELEMENT_SET_NO": 999, "REV_AT_EPOCH": 86652, "BSTAR": 0.0009281366, "MEAN_MOTION_DOT": 2.026e-05, "MEAN_MOTION_DDOT": 0}, "tle": {"line1": "1 34760U 93036AAE 25344.17882589  .00002026  00000+0  92814-3 0  9993", "line2": "2 34760  74.0629 306.9295 0096665 359.6209  15.8877 14.19557833866529"}}, "geometry": {"type": "Point", "coordinates": [93.44718328623227, 62.12144576809862]}}, {"type": "Feature", "properties": {"norad_id": 34761, "name": "COSMOS 2251 DEB", "group": "cosmos-2251-debris", "lat": -65.4283629478889, "lon": -134.5236371140067, "alt_km": 794.3900561475748, "timestamp": "2025-12-10T14:53:37.483020+00:00", "meta": {"OBJECT_NAME": "COSMOS 2251 DEB", "OBJECT_ID": "1993-036AAF", "EPOCH": "2025-12-09T19:21:52.489728", "MEAN_MOTION": 14.38033811, "ECCENTRICITY": 0.00362813, "INCLINATION": 74.0294, "RA_OF_ASC_NODE": 8.1962, "ARG_OF_PERICENTER": 43.2108, "MEAN_ANOMALY": 317.1882, "EPHEMERIS_TYPE": 0, "CLASSIFICATION_TYPE": "U", "NORAD_CAT_ID": 34761, "ELEMENT_SET_NO": 999, "REV_AT_EPOCH": 87607, "BSTAR": 0.00094718256, "MEAN_MOTION_DOT": 2.864e-05, "MEAN_MOTION_DDOT": 0}, "tle": {"line1": "1 34761U 93036AAF 25343.80685752  .00002864  00000+0  94718-3 0  9991", "line2": "2 34761  74.0294   8.1962 0036281  43.2108 317.1882 14.38033811876073"}}, "geometry": {"type": "Point", "coordinates": [-134.5236371140067, -65.4283629478889]}}]}